ONEWEB-0687             
1 61595U 24188B   25165.25002315  .00011285  00000+0  23877-1 0  9990
2 61595  87.9588  79.1637 0003524 113.0198 359.1773 13.30664001 35718
ONEWEB-0688             
1 61596U 24188C   25165.17132564  .00000285  00000+0  57696-3 0  9998
2 61596  87.9595  79.1784 0000909  82.6700 277.4542 13.30681331 35478
ONEWEB-0689             
1 61597U 24188D   25165.21144442 -.00000382  00000+0 -11147-2 0  9992
2 61597  87.8808  94.4339 0002258  71.3322 288.8051 13.11416465 34355
ONEWEB-0690             
1 61598U 24188E   25165.22160624 -.00000381  00000+0 -11111-2 0  9994
2 61598  87.8856  94.3714 0001772 100.9902 259.1425 13.11415795 34517
ONEWEB-0691             
1 61599U 24188F   25164.83507467 -.00000493  00000+0 -14281-2 0  9996
2 61599  87.8755  94.4841 0001636  69.9664 290.1640 13.11405385 36202
ONEWEB-0692             
1 61600U 24188G   25164.77911588  .00000273  00000+0  73386-3 0  9991
2 61600  87.8832  94.5411 0002954  84.3165 275.8299 13.11417299 36180
ONEWEB-0693             
1 61601U 24188H   25165.25002315  .00010474  00000+0  22129-1 0  9996
2 61601  87.9588  79.1860 0003234 138.1474 257.6753 13.30756331 35647
ONEWEB-0695             
1 61602U 24188J   25165.21313154 -.00000369  00000+0 -10768-2 0  9990
2 61602  87.8844  94.4384 0002592  74.7415 285.3999 13.11415047 34485
